TISAT 1                 
1 36799U 10035E   17345.91117774  .00000540  00000-0  61112-4 0  9994
2 36799  98.0823 112.5007 0013684 102.9530 257.3216 14.90633526402050
